NORAD_CAT_ID,OBJECT_NAME,OBJECT_TYPE,EPOCH,MEAN_MOTION,ECCENTRICITY,INCLINATION,RA_OF_ASC_NODE,ARG_OF_PERICENTER,MEAN_ANOMALY,BSTAR,MEAN_MOTION_DOT,MEAN_MOTION_DDOT,TLE_LINE0,TLE_LINE1,TLE_LINE2,SEMIMAJOR_AXIS,PERIOD,APOGEE,PERIGEE,DECAYED
55302.0,STARLINK-5321,PAYLOAD,2023-10-31 23:16:21,14.98353722,0.0003677,70.0019,32.0251,261.4712,98.603,-0.0022279,-0.00026593,0.0,0 STARLINK-5321,1 55302U 23010AK  23304.96969830 -.00026593  00000-0 -22279-2 0  9994,2 55302  70.0019  32.0251 0003677 261.4712  98.6030 14.98353722 44180,6950.12,96.105,574.54,569.429,0.0
55302.0,STARLINK-5321,PAYLOAD,2023-11-01 13:41:34,14.9830926,0.000207,70.0032,30.5117,263.963,96.1293,-0.00067238,-8.102e-05,0.0,0 STARLINK-5321,1 55302U 23010AK  23305.57053730 -.00008102  00000-0 -67238-3 0  9996,2 55302  70.0032  30.5117 0002070 263.9630  96.1293 14.98309260 44587,6950.257,96.108,573.561,570.683,0.0
55302.0,STARLINK-5321,PAYLOAD,2023-11-01 15:17:36,14.98388632,0.0002796,70.0031,30.3431,262.03,98.0542,0.00023043,2.662e-05,0.0,0 STARLINK-5321,1 55302U 23010AK  23305.63722565  .00002662  00000-0  23043-3 0  9991,2 55302  70.0031  30.3431 0002796 262.0300  98.0542 14.98388632 44287,6950.012,96.103,573.82,569.933,0.0
55302.0,STARLINK-5321,PAYLOAD,2023-11-02 12:07:11,14.9847944,0.0003121,70.0027,28.1541,256.9015,103.1796,0.0023044,0.00027618,0.0,0 STARLINK-5321,1 55302U 23010AK  23306.50499971  .00027618  00000-0  23044-2 0  9998,2 55302  70.0027  28.1541 0003121 256.9015 103.1796 14.98479440 44419,6949.731,96.097,573.765,569.427,0.0
55302.0,STARLINK-5321,PAYLOAD,2023-11-02 13:43:31,14.98327771,0.0002868,70.0027,27.9863,248.5412,111.5441,0.00057158,6.733e-05,0.0,0 STARLINK-5321,1 55302U 23010AK  23306.57189329  .00006733  00000-0  57158-3 0  9997,2 55302  70.0027  27.9863 0002868 248.5412 111.5441 14.98327771 44732,6950.2,96.107,574.058,570.071,0.0
55302.0,STARLINK-5321,PAYLOAD,2023-11-02 18:31:56,14.98321811,0.0003026,70.0026,27.4813,256.7978,103.2843,0.00045782,5.373e-05,0.0,0 STARLINK-5321,1 55302U 23010AK  23306.77218006  .00005373  00000-0  45782-3 0  9993,2 55302  70.0026  27.4813 0003026 256.7978 103.2843 14.98321811 44458,6950.218,96.108,574.186,569.98,0.0
55302.0,STARLINK-5321,PAYLOAD,2023-11-03 04:08:46,14.98320486,0.0003087,70.003,26.4717,268.997,91.0835,-7.9073e-05,-1.036e-05,0.0,0 STARLINK-5321,1 55302U 23010AK  23307.17275476 -.00001036  00000-0 -79073-4 0  9997,2 55302  70.0030  26.4717 0003087 268.9970  91.0835 14.98320486 44518,6950.222,96.108,574.233,569.942,0.0
55302.0,STARLINK-5321,PAYLOAD,2023-11-03 13:45:33,14.98327652,0.0002624,70.0015,25.4627,255.7849,104.3019,2.8664e-06,-5.9e-07,0.0,0 STARLINK-5321,1 55302U 23010AK  23307.57330888 -.00000059  00000-0  28664-5 0  9994,2 55302  70.0015  25.4627 0002624 255.7849 104.3019 14.98327652 44889,6950.2,96.107,573.889,570.241,0.0
55302.0,STARLINK-5321,PAYLOAD,2023-11-03 15:21:41,14.98329851,0.0002748,70.0009,25.2921,261.6106,98.4741,2.275e-05,1.79e-06,0.0,0 STARLINK-5321,1 55302U 23010AK  23307.64006695  .00000179  00000-0  22750-4 0  9999,2 55302  70.0009  25.2921 0002748 261.6106  98.4741 14.98329851 44581,6950.193,96.107,573.968,570.148,0.0
55302.0,STARLINK-5321,PAYLOAD,2023-11-04 13:47:34,14.98330415,0.0002746,70.0009,22.9364,269.7207,90.3637,-3.7645e-05,-5.42e-06,0.0,0 STARLINK-5321,1 55302U 23010AK  23308.57470837 -.00000542  00000-0 -37645-4 0  9990,2 55302  70.0009  22.9364 0002746 269.7207  90.3637 14.98330415 45039,6950.192,96.107,573.965,570.148,0.0
55302.0,STARLINK-5321,PAYLOAD,2023-11-04 15:23:42,14.9832672,0.0002838,70.0011,22.7681,271.2334,88.85,4.6353e-05,4.6e-06,0.0,0 STARLINK-5321,1 55302U 23010AK  23308.64146872  .00000460  00000-0  46353-4 0  9990,2 55302  70.0011  22.7681 0002838 271.2334  88.8500 14.98326720 44734,6950.203,96.107,574.041,570.096,0.0
55302.0,STARLINK-5321,PAYLOAD,2023-11-05 12:13:27,14.98328964,0.0002307,70.0013,20.581,265.6222,94.4674,0.00019294,2.21e-05,0.0,0 STARLINK-5321,1 55302U 23010AK  23309.50934249  .00002210  00000-0  19294-3 0  9997,2 55302  70.0013  20.5810 0002307 265.6222  94.4674 14.98328964 44861,6950.196,96.107,573.665,570.458,0.0
55302.0,STARLINK-5321,PAYLOAD,2023-11-05 13:49:34,14.98334502,0.0002167,70.0019,20.412,260.7332,99.3582,0.00015896,1.804e-05,0.0,0 STARLINK-5321,1 55302U 23010AK  23309.57609933  .00001804  00000-0  15896-3 0  9995,2 55302  70.0019  20.4120 0002167 260.7332  99.3582 14.98334502 45185,6950.179,96.107,573.55,570.538,0.0
55302.0,STARLINK-5321,PAYLOAD,2023-11-06 10:39:19,14.983407,0.0002509,70.0011,18.2225,267.4628,92.6244,0.00010904,1.209e-05,0.0,0 STARLINK-5321,1 55302U 23010AK  23310.44397070  .00001209  00000-0  10904-3 0  9993,2 55302  70.0011  18.2225 0002509 267.4628  92.6244 14.98340700 45009,6950.16,96.106,573.769,570.281,0.0
55302.0,STARLINK-5321,PAYLOAD,2023-11-06 13:51:34,14.98346922,0.0002681,70.0009,17.8863,271.3302,88.755,0.00020449,2.349e-05,0.0,0 STARLINK-5321,1 55302U 23010AK  23310.57748275  .00002349  00000-0  20449-3 0  9995,2 55302  70.0009  17.8863 0002681 271.3302  88.7550 14.98346922 45337,6950.141,96.106,573.869,570.142,0.0
55302.0,STARLINK-5321,PAYLOAD,2023-11-07 04:16:50,14.98313023,0.0002848,70.0008,16.3719,265.6755,94.4078,-0.00032736,-3.995e-05,0.0,0 STARLINK-5321,1 55302U 23010AK  23311.17836074 -.00003995  00000-0 -32736-3 0  9999,2 55302  70.0008  16.3719 0002848 265.6755  94.4078 14.98313023 45114,6950.245,96.108,574.09,570.131,0.0
55302.0,STARLINK-5321,PAYLOAD,2023-11-07 10:41:24,14.98295103,0.0002805,70.0006,15.6985,267.1765,92.9073,-0.00050848,-6.149e-05,0.0,0 STARLINK-5321,1 55302U 23010AK  23311.44542032 -.00006149  00000-0 -50848-3 0  9995,2 55302  70.0006  15.6985 0002805 267.1765  92.9073 14.98295103 45150,6950.301,96.109,574.115,570.216,0.0
55302.0,STARLINK-5321,PAYLOAD,2023-11-07 13:53:40,14.98295829,0.0002745,70.0008,15.3621,265.3927,94.6918,-0.00047209,-5.716e-05,0.0,0 STARLINK-5321,1 55302U 23010AK  23311.57894137 -.00005716  00000-0 -47209-3 0  9991,2 55302  70.0008  15.3621 0002745 265.3927  94.6918 14.98295829 45487,6950.299,96.109,574.071,570.256,0.0
55302.0,STARLINK-5321,PAYLOAD,2023-11-08 04:18:51,14.98313979,0.0003353,70.0028,13.8515,276.5524,83.5253,-4.1527e-05,-5.88e-06,0.0,0 STARLINK-5321,1 55302U 23010AK  23312.17976334 -.00000588  00000-0 -41527-4 0  9998,2 55302  70.0028  13.8515 0003353 276.5524  83.5253 14.98313979 45269,6950.242,96.108,574.438,569.777,0.0
55302.0,STARLINK-5321,PAYLOAD,2023-11-08 10:43:22,14.98337214,0.0002782,70.0004,13.1732,270.6049,89.4791,-4.5837e-06,-1.48e-06,0.0,0 STARLINK-5321,1 55302U 23010AK  23312.44678924 -.00000148  00000-0 -45837-5 0  9993,2 55302  70.0004  13.1732 0002782 270.6049  89.4791 14.98337214 45304,6950.171,96.107,573.969,570.102,0.0
55302.0,STARLINK-5321,PAYLOAD,2023-11-08 13:55:38,14.98339008,0.000266,70.0013,12.8389,267.9552,92.1302,1.8739e-05,1.31e-06,0.0,0 STARLINK-5321,1 55302U 23010AK  23312.58030723  .00000131  00000-0  18739-4 0  9997,2 55302  70.0013  12.8389 0002660 267.9552  92.1302 14.98339008 45639,6950.165,96.106,573.879,570.181,0.0
55302.0,STARLINK-5321,PAYLOAD,2023-11-08 21:56:18,14.98340533,0.000231,70.0024,11.9968,290.0612,70.0298,1.4402e-05,7.9e-07,0.0,0 STARLINK-5321,1 55302U 23010AK  23312.91410724  .00000079  00000-0  14402-4 0  9991,2 55302  70.0024  11.9968 0002310 290.0612  70.0298 14.98340533 45689,6950.16,96.106,573.631,570.42,0.0
55302.0,STARLINK-5321,PAYLOAD,2023-11-09 04:20:51,14.98315415,0.000262,70.0014,11.3238,272.4595,87.6264,0.00049645,5.833e-05,0.0,0 STARLINK-5321,1 55302U 23010AK  23313.18114898  .00005833  00000-0  49645-3 0  9993,2 55302  70.0014  11.3238 0002620 272.4595  87.6264 14.98315415 45419,6950.238,96.108,573.924,570.282,0.0
55302.0,STARLINK-5321,PAYLOAD,2023-11-09 13:57:39,14.98322474,0.0002459,70.0014,10.3137,272.9614,87.1263,0.00048967,5.753e-05,0.0,0 STARLINK-5321,1 55302U 23010AK  23313.58170778  .00005753  00000-0  48967-3 0  9993,2 55302  70.0014  10.3137 0002459 272.9614  87.1263 14.98322474 45780,6950.216,96.107,573.79,570.372,0.0
55302.0,STARLINK-5321,PAYLOAD,2023-11-10 04:22:52,14.98332013,0.0002891,70.0039,8.7995,260.5032,99.58,-6.2005e-05,-8.33e-06,0.0,0 STARLINK-5321,1 55302U 23010AK  23314.18255610 -.00000833  00000-0 -62005-4 0  9995,2 55302  70.0039   8.7995 0002891 260.5032  99.5800 14.98332013 45567,6950.187,96.107,574.061,570.042,0.0
55302.0,STARLINK-5321,PAYLOAD,2023-11-10 13:59:41,14.98335164,0.000272,70.0005,7.7865,268.4382,91.6465,-0.0001004,-1.291e-05,0.0,0 STARLINK-5321,1 55302U 23010AK  23314.58311423 -.00001291  00000-0 -10040-3 0  9994,2 55302  70.0005   7.7865 0002720 268.4382  91.6465 14.98335164 45932,6950.177,96.107,573.932,570.151,0.0
55302.0,STARLINK-5321,PAYLOAD,2023-11-10 20:24:13,14.98336802,0.0002573,70.001,7.114,268.3125,91.7739,-9.3263e-05,-1.206e-05,0.0,0 STARLINK-5321,1 55302U 23010AK  23314.85015213 -.00001206  00000-0 -93263-4 0  9997,2 55302  70.0010   7.1140 0002573 268.3125  91.7739 14.98336802 45977,6950.172,96.107,573.825,570.249,0.0
55302.0,STARLINK-5321,PAYLOAD,2023-11-11 10:49:25,14.98337804,0.000245,70.0003,5.5986,258.0083,102.0801,-7.3461e-05,-9.69e-06,0.0,0 STARLINK-5321,1 55302U 23010AK  23315.45098722 -.00000969  00000-0 -73461-4 0  9993,2 55302  70.0003   5.5986 0002450 258.0083 102.0801 14.98337804 45757,6950.169,96.106,573.737,570.331,0.0
55302.0,STARLINK-5321,PAYLOAD,2023-11-11 14:01:41,14.98339492,0.0002619,70.0004,5.262,265.9409,94.1451,-6.448e-05,-8.62e-06,0.0,0 STARLINK-5321,1 55302U 23010AK  23315.58450530 -.00000862  00000-0 -64480-4 0  9999,2 55302  70.0004   5.2620 0002619 265.9409  94.1451 14.98339492 46080,6950.164,96.106,573.849,570.208,0.0
55302.0,STARLINK-5321,PAYLOAD,2023-11-11 20:26:13,14.98322569,0.0002591,70.0004,4.5888,271.5455,88.5407,0.00017987,2.053e-05,0.0,0 STARLINK-5321,1 55302U 23010AK  23315.85154986  .00002053  00000-0  17987-3 0  9996,2 55302  70.0004   4.5888 0002591 271.5455  88.5407 14.98322569 46121,6950.216,96.107,573.882,570.28,0.0
